[{"OBJECT_NAME":"STARLINK-36252","OBJECT_ID":"2026-068AB","EPOCH":"2026-04-12T20:00:01.999008","MEAN_MOTION":15.80776601,"ECCENTRICITY":0.0001027,"INCLINATION":53.1599,"RA_OF_ASC_NODE":338.0007,"ARG_OF_PERICENTER":89.8578,"MEAN_ANOMALY":166.7163,"EPHEMERIS_TYPE":0,"CLASSIFICATION_TYPE":"U","NORAD_CAT_ID":68533,"ELEMENT_SET_NO":999,"REV_AT_EPOCH":325,"BSTAR":0.00088892,"MEAN_MOTION_DOT":0.00177607,"MEAN_MOTION_DDOT":0},{"OBJECT_NAME":"STARLINK-36299","OBJECT_ID":"2026-068AC","EPOCH":"2026-04-12T20:00:01.999008","MEAN_MOTION":15.80776747,"ECCENTRICITY":0.0001034,"INCLINATION":53.1599,"RA_OF_ASC_NODE":337.9827,"ARG_OF_PERICENTER":89.1024,"MEAN_ANOMALY":176.0152,"EPHEMERIS_TYPE":0,"CLASSIFICATION_TYPE":"U","NORAD_CAT_ID":68534,"ELEMENT_SET_NO":999,"REV_AT_EPOCH":325,"BSTAR":0.00088581,"MEAN_MOTION_DOT":0.00176971,"MEAN_MOTION_DDOT":0},{"OBJECT_NAME":"STARLINK-37234","OBJECT_ID":"2026-068AD","EPOCH":"2026-04-12T20:00:01.999008","MEAN_MOTION":15.80769374,"ECCENTRICITY":0.0001026,"INCLINATION":53.1596,"RA_OF_ASC_NODE":337.9646,"ARG_OF_PERICENTER":90.5498,"MEAN_ANOMALY":183.1119,"EPHEMERIS_TYPE":0,"CLASSIFICATION_TYPE":"U","NORAD_CAT_ID":68535,"ELEMENT_SET_NO":999,"REV_AT_EPOCH":330,"BSTAR":0.00099853,"MEAN_MOTION_DOT":0.00200052,"MEAN_MOTION_DDOT":0},{"OBJECT_NAME":"STARLINK-37173","OBJECT_ID":"2026-068AE","EPOCH":"2026-04-12T20:00:01.999008","MEAN_MOTION":15.80769694,"ECCENTRICITY":0.0001022,"INCLINATION":53.1598,"RA_OF_ASC_NODE":337.9739,"ARG_OF_PERICENTER":89.7937,"MEAN_ANOMALY":179.5963,"EPHEMERIS_TYPE":0,"CLASSIFICATION_TYPE":"U","NORAD_CAT_ID":68536,"ELEMENT_SET_NO":999,"REV_AT_EPOCH":330,"BSTAR":0.00099046,"MEAN_MOTION_DOT":0.00198393,"MEAN_MOTION_DDOT":0},{"OBJECT_NAME":"SL-4 R/B","OBJECT_ID":"2026-061S","EPOCH":"2026-04-12T20:05:14.265024","MEAN_MOTION":15.95893706,"ECCENTRICITY":0.0019088,"INCLINATION":82.3037,"RA_OF_ASC_NODE":85.8491,"ARG_OF_PERICENTER":353.7628,"MEAN_ANOMALY":6.3406,"EPHEMERIS_TYPE":0,"CLASSIFICATION_TYPE":"U","NORAD_CAT_ID":68537,"ELEMENT_SET_NO":999,"REV_AT_EPOCH":320,"BSTAR":0.00048621,"MEAN_MOTION_DOT":0.00200412,"MEAN_MOTION_DDOT":1.4226e-5},{"OBJECT_NAME":"SWC-1","OBJECT_ID":"2026-069C","EPOCH":"2026-04-04T00:55:14.478528","MEAN_MOTION":1.02608558,"ECCENTRICITY":0.84368008,"INCLINATION":28.3174,"RA_OF_ASC_NODE":359.0866,"ARG_OF_PERICENTER":78.4879,"MEAN_ANOMALY":25.8197,"EPHEMERIS_TYPE":0,"CLASSIFICATION_TYPE":"U","NORAD_CAT_ID":68540,"ELEMENT_SET_NO":999,"REV_AT_EPOCH":3,"BSTAR":0,"MEAN_MOTION_DOT":-0.00012113,"MEAN_MOTION_DDOT":6.8891712e-5},{"OBJECT_NAME":"STARLINK-37326","OBJECT_ID":"2026-070A","EPOCH":"2026-04-12T20:00:01.999008","MEAN_MOTION":15.92607813,"ECCENTRICITY":9.43e-5,"INCLINATION":53.1588,"RA_OF_ASC_NODE":213.4781,"ARG_OF_PERICENTER":84.7185,"MEAN_ANOMALY":170.6765,"EPHEMERIS_TYPE":0,"CLASSIFICATION_TYPE":"U","NORAD_CAT_ID":68542,"ELEMENT_SET_NO":999,"REV_AT_EPOCH":287,"BSTAR":-0.0028858,"MEAN_MOTION_DOT":-0.01012894,"MEAN_MOTION_DDOT":0.00031507},{"OBJECT_NAME":"STARLINK-36308","OBJECT_ID":"2026-070B","EPOCH":"2026-04-12T20:00:01.999008","MEAN_MOTION":15.92728802,"ECCENTRICITY":0.0001098,"INCLINATION":53.1589,"RA_OF_ASC_NODE":213.4719,"ARG_OF_PERICENTER":81.4197,"MEAN_ANOMALY":176.7244,"EPHEMERIS_TYPE":0,"CLASSIFICATION_TYPE":"U","NORAD_CAT_ID":68543,"ELEMENT_SET_NO":999,"REV_AT_EPOCH":282,"BSTAR":-0.0030956,"MEAN_MOTION_DOT":-0.01092617,"MEAN_MOTION_DDOT":0.00036188},{"OBJECT_NAME":"STARLINK-37263","OBJECT_ID":"2026-070C","EPOCH":"2026-04-12T20:00:01.999008","MEAN_MOTION":15.92899273,"ECCENTRICITY":0.0001001,"INCLINATION":53.1587,"RA_OF_ASC_NODE":213.4611,"ARG_OF_PERICENTER":87.0256,"MEAN_ANOMALY":176.5253,"EPHEMERIS_TYPE":0,"CLASSIFICATION_TYPE":"U","NORAD_CAT_ID":68544,"ELEMENT_SET_NO":999,"REV_AT_EPOCH":287,"BSTAR":-0.002916,"MEAN_MOTION_DOT":-0.01039013,"MEAN_MOTION_DDOT":0.00033089},{"OBJECT_NAME":"STARLINK-37289","OBJECT_ID":"2026-070D","EPOCH":"2026-04-12T20:00:01.999008","MEAN_MOTION":15.92805388,"ECCENTRICITY":9.51e-5,"INCLINATION":53.1586,"RA_OF_ASC_NODE":213.4676,"ARG_OF_PERICENTER":84.7667,"MEAN_ANOMALY":175.6195,"EPHEMERIS_TYPE":0,"CLASSIFICATION_TYPE":"U","NORAD_CAT_ID":68545,"ELEMENT_SET_NO":999,"REV_AT_EPOCH":287,"BSTAR":-0.0028631,"MEAN_MOTION_DOT":-0.01015367,"MEAN_MOTION_DDOT":0.00031708},{"OBJECT_NAME":"STARLINK-37290","OBJECT_ID":"2026-070E","EPOCH":"2026-04-12T20:00:01.999008","MEAN_MOTION":15.92975314,"ECCENTRICITY":9.36e-5,"INCLINATION":53.1589,"RA_OF_ASC_NODE":213.4542,"ARG_OF_PERICENTER":85.0455,"MEAN_ANOMALY":181.753,"EPHEMERIS_TYPE":0,"CLASSIFICATION_TYPE":"U","NORAD_CAT_ID":68546,"ELEMENT_SET_NO":999,"REV_AT_EPOCH":287,"BSTAR":-0.0028351,"MEAN_MOTION_DOT":-0.01014449,"MEAN_MOTION_DDOT":0.00031709},{"OBJECT_NAME":"STARLINK-37245","OBJECT_ID":"2026-070F","EPOCH":"2026-04-12T20:00:01.999008","MEAN_MOTION":15.93156289,"ECCENTRICITY":9.24e-5,"INCLINATION":53.1589,"RA_OF_ASC_NODE":213.4417,"ARG_OF_PERICENTER":82.8171,"MEAN_ANOMALY":190.1109,"EPHEMERIS_TYPE":0,"CLASSIFICATION_TYPE":"U","NORAD_CAT_ID":68547,"ELEMENT_SET_NO":999,"REV_AT_EPOCH":287,"BSTAR":-0.0028514,"MEAN_MOTION_DOT":-0.01029893,"MEAN_MOTION_DDOT":0.00032647},{"OBJECT_NAME":"STARLINK-37145","OBJECT_ID":"2026-070G","EPOCH":"2026-04-12T20:00:01.999008","MEAN_MOTION":15.93071573,"ECCENTRICITY":9.44e-5,"INCLINATION":53.1587,"RA_OF_ASC_NODE":213.4488,"ARG_OF_PERICENTER":82.8797,"MEAN_ANOMALY":186.6514,"EPHEMERIS_TYPE":0,"CLASSIFICATION_TYPE":"U","NORAD_CAT_ID":68548,"ELEMENT_SET_NO":999,"REV_AT_EPOCH":287,"BSTAR":-0.002845,"MEAN_MOTION_DOT":-0.01023084,"MEAN_MOTION_DDOT":0.0003223},{"OBJECT_NAME":"STARLINK-36204","OBJECT_ID":"2026-070H","EPOCH":"2026-04-12T20:00:01.999008","MEAN_MOTION":15.93265369,"ECCENTRICITY":0.00011,"INCLINATION":53.159,"RA_OF_ASC_NODE":213.4348,"ARG_OF_PERICENTER":84.5043,"MEAN_ANOMALY":191.577,"EPHEMERIS_TYPE":0,"CLASSIFICATION_TYPE":"U","NORAD_CAT_ID":68549,"ELEMENT_SET_NO":999,"REV_AT_EPOCH":282,"BSTAR":-0.0030071,"MEAN_MOTION_DOT":-0.01091734,"MEAN_MOTION_DDOT":0.00036326},{"OBJECT_NAME":"STARLINK-36304","OBJECT_ID":"2026-070J","EPOCH":"2026-04-12T20:00:01.999008","MEAN_MOTION":15.93445587,"ECCENTRICITY":0.000108,"INCLINATION":53.1587,"RA_OF_ASC_NODE":213.4214,"ARG_OF_PERICENTER":88.505,"MEAN_ANOMALY":194.0893,"EPHEMERIS_TYPE":0,"CLASSIFICATION_TYPE":"U","NORAD_CAT_ID":68550,"ELEMENT_SET_NO":999,"REV_AT_EPOCH":282,"BSTAR":-0.0030464,"MEAN_MOTION_DOT":-0.01116308,"MEAN_MOTION_DDOT":0.00037891},{"OBJECT_NAME":"STARLINK-37288","OBJECT_ID":"2026-070K","EPOCH":"2026-04-12T20:00:01.999008","MEAN_MOTION":15.93507108,"ECCENTRICITY":8.81e-5,"INCLINATION":53.1588,"RA_OF_ASC_NODE":213.4154,"ARG_OF_PERICENTER":82.77,"MEAN_ANOMALY":202.6439,"EPHEMERIS_TYPE":0,"CLASSIFICATION_TYPE":"U","NORAD_CAT_ID":68551,"ELEMENT_SET_NO":999,"REV_AT_EPOCH":287,"BSTAR":-0.0027969,"MEAN_MOTION_DOT":-0.0102905,"MEAN_MOTION_DDOT":0.00032712}]
