STARLINK-36252
1 68533U 26102.83334491  1.77607-3 8.88920-4 0 0                     
2 68533  53.1599 338.0007 0001027  89.8578 166.7163 15.80776601      
STARLINK-36299
1 68534U 26102.83334491  1.76971-3 8.85810-4 0 0                     
2 68534  53.1599 337.9827 0001034  89.1024 176.0152 15.80776747      
STARLINK-37234
1 68535U 26102.83334491  2.00052-3 9.98530-4 0 0                     
2 68535  53.1596 337.9646 0001026  90.5498 183.1119 15.80769374      
STARLINK-37173
1 68536U 26102.83334491  1.98393-3 9.90460-4 0 0                     
2 68536  53.1598 337.9739 0001022  89.7937 179.5963 15.80769694      
SWC-1
1 68540U 26094.03835648  1.21130-4  00000-0 0 0                      
2 68540  28.3174 359.0866 8436800  78.4879  25.8197  1.02608558      
STARLINK-37326
1 68542U 26102.83334491  1.01289-2 2.88580-3 0 0                     
2 68542  53.1588 213.4781 0000943  84.7185 170.6765 15.92607813      
STARLINK-36308
1 68543U 26102.83334491  1.09262-2 3.09560-3 0 0                     
2 68543  53.1589 213.4719 0001098  81.4197 176.7244 15.92728802      
STARLINK-37263
1 68544U 26102.83334491  1.03901-2 2.91600-3 0 0                     
2 68544  53.1587 213.4611 0001000  87.0256 176.5253 15.92899273      
STARLINK-37289
1 68545U 26102.83334491  1.01537-2 2.86310-3 0 0                     
2 68545  53.1586 213.4676 0000950  84.7667 175.6195 15.92805388      
STARLINK-37290
1 68546U 26102.83334491  1.01445-2 2.83510-3 0 0                     
2 68546  53.1589 213.4542 0000936  85.0455 181.7530 15.92975314      
STARLINK-37245
1 68547U 26102.83334491  1.02989-2 2.85140-3 0 0                     
2 68547  53.1589 213.4417 0000924  82.8171 190.1109 15.93156289      
STARLINK-37145
1 68548U 26102.83334491  1.02308-2 2.84500-3 0 0                     
2 68548  53.1587 213.4488 0000944  82.8797 186.6514 15.93071573      
STARLINK-36204
1 68549U 26102.83334491  1.09173-2 3.00710-3 0 0                     
2 68549  53.1590 213.4348 0001100  84.5043 191.5770 15.93265369      
STARLINK-36304
1 68550U 26102.83334491  1.11631-2 3.04640-3 0 0                     
2 68550  53.1587 213.4214 0001080  88.5050 194.0893 15.93445587      
STARLINK-37288
1 68551U 26102.83334491  1.02905-2 2.79690-3 0 0                     
2 68551  53.1588 213.4154 0000881  82.7700 202.6439 15.93507108      
SL-4 R/B
1 68537U 26102.83696759  2.00412-3 4.86210-4 0 0                     
2 68537  82.3037  85.8491 0019088 353.7628   6.3406 15.95893706      
